[{"OBJECT_NAME":"LIZZIESAT-3 (LS-3)","OBJECT_ID":"2025-052Z","EPOCH":"2026-03-09T23:14:46.856832","MEAN_MOTION":15.20716998,"ECCENTRICITY":0.00070924,"INCLINATION":97.4033,"RA_OF_ASC_NODE":322.5624,"ARG_OF_PERICENTER":136.4425,"MEAN_ANOMALY":223.7371,"EPHEMERIS_TYPE":0,"CLASSIFICATION_TYPE":"U","NORAD_CAT_ID":63233,"ELEMENT_SET_NO":999,"REV_AT_EPOCH":5472,"BSTAR":0.00032646441,"MEAN_MOTION_DOT":7.117e-5,"MEAN_MOTION_DDOT":0},{"OBJECT_NAME":"GHGSAT-C12","OBJECT_ID":"2025-135B","EPOCH":"2026-03-09T21:42:54.844416","MEAN_MOTION":15.19558972,"ECCENTRICITY":0.0005838,"INCLINATION":97.4617,"RA_OF_ASC_NODE":184.7149,"ARG_OF_PERICENTER":147.3031,"MEAN_ANOMALY":212.8566,"EPHEMERIS_TYPE":0,"CLASSIFICATION_TYPE":"U","NORAD_CAT_ID":64529,"ELEMENT_SET_NO":999,"REV_AT_EPOCH":3974,"BSTAR":0.00022956142,"MEAN_MOTION_DOT":4.815e-5,"MEAN_MOTION_DDOT":0}]
